NORAD_CAT_ID,OBJECT_NAME,OBJECT_TYPE,EPOCH,MEAN_MOTION,ECCENTRICITY,INCLINATION,RA_OF_ASC_NODE,ARG_OF_PERICENTER,MEAN_ANOMALY,BSTAR,MEAN_MOTION_DOT,MEAN_MOTION_DDOT,TLE_LINE0,TLE_LINE1,TLE_LINE2,SEMIMAJOR_AXIS,PERIOD,APOGEE,PERIGEE,DECAYED
52840.0,STARLINK-4049,PAYLOAD,2023-10-19 10:16:36,15.08854942,0.0001697,53.2165,349.8666,91.3802,268.7385,0.00042614,6.503e-05,0.0,0 STARLINK-4049,1 52840U 22062L   23292.42819542  .00006503  00000-0  42614-3 0  9998,2 52840  53.2165 349.8666 0001697  91.3802 268.7385 15.08854942 74108,6917.835,95.437,540.874,538.526,0.0
52840.0,STARLINK-4049,PAYLOAD,2023-10-19 21:24:18,15.08851105,0.0001653,53.2151,347.7887,81.63,278.488,0.00031819,4.781e-05,0.0,0 STARLINK-4049,1 52840U 22062L   23292.89187601  .00004781  00000-0  31819-3 0  9994,2 52840  53.2151 347.7887 0001653  81.6300 278.4880 15.08851105 74175,6917.846,95.437,540.855,538.568,0.0
52840.0,STARLINK-4049,PAYLOAD,2023-10-20 03:45:50,15.08844233,0.0001878,53.2172,346.598,100.4449,259.6755,0.00016637,2.361e-05,0.0,0 STARLINK-4049,1 52840U 22062L   23293.15683754  .00002361  00000-0  16637-3 0  9997,2 52840  53.2172 346.5980 0001878 100.4449 259.6755 15.08844233 74707,6917.867,95.437,541.032,538.433,0.0
52840.0,STARLINK-4049,PAYLOAD,2023-10-20 10:07:23,15.08838329,0.0001699,53.2174,345.4047,122.7556,237.36,-2.1645e-05,-6.33e-06,0.0,0 STARLINK-4049,1 52840U 22062L   23293.42179868 -.00000633  00000-0 -21645-4 0  9991,2 52840  53.2174 345.4047 0001699 122.7556 237.3600 15.08838329 74259,6917.885,95.438,540.926,538.575,0.0
52840.0,STARLINK-4049,PAYLOAD,2023-10-21 09:58:10,15.08845288,0.0001475,53.2174,340.9484,97.9594,262.1565,2.6368e-05,1.32e-06,0.0,0 STARLINK-4049,1 52840U 22062L   23294.41540098  .00000132  00000-0  26368-4 0  9997,2 52840  53.2174 340.9484 0001475  97.9594 262.1565 15.08845288 74406,6917.864,95.437,540.75,538.709,0.0
52840.0,STARLINK-4049,PAYLOAD,2023-10-22 09:48:57,15.0884874,0.0001369,53.2172,336.4872,89.5066,270.6083,0.00036195,5.479e-05,0.0,0 STARLINK-4049,1 52840U 22062L   23295.40900181  .00005479  00000-0  36195-3 0  9997,2 52840  53.2172 336.4872 0001369  89.5066 270.6083 15.08848740 75044,6917.854,95.437,540.666,538.772,0.0
52840.0,STARLINK-4049,PAYLOAD,2023-10-22 19:21:16,15.08842718,0.0001164,53.2166,334.7008,81.6387,278.4737,0.00016466,2.334e-05,0.0,0 STARLINK-4049,1 52840U 22062L   23295.80644292  .00002334  00000-0  16466-3 0  9995,2 52840  53.2166 334.7008 0001164  81.6387 278.4737 15.08842718 75109,6917.872,95.437,540.542,538.932,0.0
52840.0,STARLINK-4049,PAYLOAD,2023-10-23 08:04:22,15.08830957,0.000176,53.2179,332.3248,103.8496,256.2693,-0.00013246,-2.395e-05,0.0,0 STARLINK-4049,1 52840U 22062L   23296.33637029 -.00002395  00000-0 -13246-3 0  9996,2 52840  53.2179 332.3248 0001760 103.8496 256.2693 15.08830957 75188,6917.908,95.438,540.991,538.555,0.0
52840.0,STARLINK-4049,PAYLOAD,2023-10-23 19:12:04,15.08834672,0.0001729,53.2183,330.244,93.8919,266.227,-5.1016e-05,-1.1e-05,0.0,0 STARLINK-4049,1 52840U 22062L   23296.80005175 -.00001100  00000-0 -51016-4 0  9990,2 52840  53.2183 330.2440 0001729  93.8919 266.2270 15.08834672 74760,6917.897,95.438,540.958,538.566,0.0
52840.0,STARLINK-4049,PAYLOAD,2023-10-24 11:05:55,15.08843302,0.0001751,53.2179,327.2698,100.4843,259.6347,0.00012585,1.716e-05,0.0,0 STARLINK-4049,1 52840U 22062L   23297.46245014  .00001716  00000-0  12585-3 0  9999,2 52840  53.2179 327.2698 0001751 100.4843 259.6347 15.08843302 75359,6917.87,95.437,540.947,538.524,0.0
52840.0,STARLINK-4049,PAYLOAD,2023-10-25 10:56:42,15.08847042,0.0001715,53.2164,322.8073,86.5245,273.5943,0.00025938,3.843e-05,0.0,0 STARLINK-4049,1 52840U 22062L   23298.45605038  .00003843  00000-0  25938-3 0  9994,2 52840  53.2164 322.8073 0001715  86.5245 273.5943 15.08847042 75016,6917.859,95.437,540.91,538.537,0.0
52840.0,STARLINK-4049,PAYLOAD,2023-10-26 10:47:30,15.08838835,0.0001732,53.2161,318.3461,90.9633,269.1557,0.00036484,5.523e-05,0.0,0 STARLINK-4049,1 52840U 22062L   23299.44965342  .00005523  00000-0  36484-3 0  9996,2 52840  53.2161 318.3461 0001732  90.9633 269.1557 15.08838835 75655,6917.884,95.438,540.947,538.551,0.0
52840.0,STARLINK-4049,PAYLOAD,2023-10-26 18:44:25,15.08843324,0.0001675,53.2158,316.8574,89.8518,270.2666,3.2217e-05,2.25e-06,0.0,0 STARLINK-4049,1 52840U 22062L   23299.78084972  .00000225  00000-0  32217-4 0  9999,2 52840  53.2158 316.8574 0001675  89.8518 270.2666 15.08843324 75219,6917.87,95.437,540.894,538.576,0.0
52840.0,STARLINK-4049,PAYLOAD,2023-10-27 07:27:30,15.08849886,0.00016,53.2149,314.4793,90.5725,269.5451,0.00014764,2.063e-05,0.0,0 STARLINK-4049,1 52840U 22062L   23300.31076600  .00002063  00000-0  14764-3 0  9998,2 52840  53.2149 314.4793 0001600  90.5725 269.5451 15.08849886 75293,6917.85,95.437,540.822,538.608,0.0
52840.0,STARLINK-4049,PAYLOAD,2023-10-27 18:35:12,15.08845612,0.0001572,53.2143,312.3986,86.3637,273.7535,0.00011444,1.534e-05,0.0,0 STARLINK-4049,1 52840U 22062L   23300.77444699  .00001534  00000-0  11444-3 0  9999,2 52840  53.2143 312.3986 0001572  86.3637 273.7535 15.08845612 75856,6917.863,95.437,540.816,538.641,0.0
52840.0,STARLINK-4049,PAYLOAD,2023-10-28 10:29:04,15.08840537,0.0001761,53.2171,309.4224,101.8075,258.3115,-1.6625e-06,-3.15e-06,0.0,0 STARLINK-4049,1 52840U 22062L   23301.43685240 -.00000315  00000-0 -16625-5 0  9998,2 52840  53.2171 309.4224 0001761 101.8075 258.3115 15.08840537 75953,6917.879,95.438,540.962,538.526,0.0
52840.0,STARLINK-4049,PAYLOAD,2023-10-29 07:09:04,15.08849814,0.0001601,53.2166,305.5567,95.9108,264.2067,7.6285e-05,9.27e-06,0.0,0 STARLINK-4049,1 52840U 22062L   23302.29796587  .00000927  00000-0  76285-4 0  9994,2 52840  53.2166 305.5567 0001601  95.9108 264.2067 15.08849814 76081,6917.85,95.437,540.823,538.608,0.0
52840.0,STARLINK-4049,PAYLOAD,2023-10-30 03:49:05,15.08834576,0.0001769,53.2165,301.6923,99.519,260.6003,7.759e-05,9.47e-06,0.0,0 STARLINK-4049,1 52840U 22062L   23303.15909676  .00000947  00000-0  77590-4 0  9997,2 52840  53.2165 301.6923 0001769  99.5190 260.6003 15.08834576 76213,6917.897,95.438,540.986,538.538,0.0
52840.0,STARLINK-4049,PAYLOAD,2023-10-30 16:32:11,15.08835513,0.000148,53.2152,299.3146,87.23,272.8861,9.3454e-06,-1.39e-06,0.0,0 STARLINK-4049,1 52840U 22062L   23303.68901745 -.00000139  00000-0  93454-5 0  9996,2 52840  53.2152 299.3146 0001480  87.2300 272.8861 15.08835513 75809,6917.894,95.438,540.783,538.735,0.0
52840.0,STARLINK-4049,PAYLOAD,2023-10-31 06:50:39,15.08840401,0.0001557,53.2169,296.6405,91.4708,268.6462,6.8996e-05,8.1e-06,0.0,0 STARLINK-4049,1 52840U 22062L   23304.28517884  .00000810  00000-0  68996-4 0  9997,2 52840  53.2169 296.6405 0001557  91.4708 268.6462 15.08840401 76385,6917.879,95.438,540.821,538.667,0.0
52840.0,STARLINK-4049,PAYLOAD,2023-10-31 16:22:58,15.0884172,0.0001572,53.2169,294.8567,94.3131,265.8041,1.4433e-05,-5.8e-07,0.0,0 STARLINK-4049,1 52840U 22062L   23304.68261886 -.00000058  00000-0  14433-4 0  9991,2 52840  53.2169 294.8567 0001572  94.3131 265.8041 15.08841720 75952,6917.875,95.437,540.828,538.653,0.0
52840.0,STARLINK-4049,PAYLOAD,2023-11-01 05:06:03,15.08835752,0.0001653,53.2174,292.4779,94.2025,265.9156,0.00010725,1.419e-05,0.0,0 STARLINK-4049,1 52840U 22062L   23305.21254416  .00001419  00000-0  10725-3 0  9992,2 52840  53.2174 292.4779 0001653  94.2025 265.9156 15.08835752 76528,6917.893,95.438,540.902,538.615,0.0
52840.0,STARLINK-4049,PAYLOAD,2023-11-01 08:16:49,15.08840152,0.0001796,53.2186,291.8801,92.3664,267.7533,0.00013413,1.847e-05,0.0,0 STARLINK-4049,1 52840U 22062L   23305.34502132  .00001847  00000-0  13413-3 0  9999,2 52840  53.2186 291.8801 0001796  92.3664 267.7533 15.08840152 76053,6917.88,95.438,540.987,538.502,0.0
52840.0,STARLINK-4049,PAYLOAD,2023-11-01 16:13:45,15.08845542,0.0001768,53.2183,290.3917,82.4436,277.6757,2.2207e-05,6.5e-07,0.0,0 STARLINK-4049,1 52840U 22062L   23305.67621921  .00000065  00000-0  22207-4 0  9996,2 52840  53.2183 290.3917 0001768  82.4436 277.6757 15.08845542 76100,6917.863,95.437,540.952,538.505,0.0
52840.0,STARLINK-4049,PAYLOAD,2023-11-02 08:07:36,15.08851735,0.0001571,53.2163,287.4212,91.9679,268.1493,0.00021659,3.162e-05,0.0,0 STARLINK-4049,1 52840U 22062L   23306.33861470  .00003162  00000-0  21659-3 0  9995,2 52840  53.2163 287.4212 0001571  91.9679 268.1493 15.08851735 76696,6917.845,95.437,540.796,538.623,0.0
52840.0,STARLINK-4049,PAYLOAD,2023-11-02 22:26:05,15.08834486,0.0001328,53.218,284.743,98.0729,262.0414,1.1911e-05,-9.8e-07,0.0,0 STARLINK-4049,1 52840U 22062L   23306.93478386 -.00000098  00000-0  11911-4 0  9998,2 52840  53.2180 284.7430 0001328  98.0729 262.0414 15.08834486 76297,6917.897,95.438,540.681,538.844,0.0
52840.0,STARLINK-4049,PAYLOAD,2023-11-03 04:47:37,15.08841424,0.0001525,53.2174,283.5535,101.2652,258.8512,0.00011178,1.492e-05,0.0,0 STARLINK-4049,1 52840U 22062L   23307.19974128  .00001492  00000-0  11178-3 0  9994,2 52840  53.2174 283.5535 0001525 101.2652 258.8512 15.08841424 76825,6917.876,95.437,540.796,538.686,0.0
52840.0,STARLINK-4049,PAYLOAD,2023-11-03 06:23:00,15.08847808,0.0001452,53.2161,283.2562,102.4413,257.6742,0.00012998,1.782e-05,0.0,0 STARLINK-4049,1 52840U 22062L   23307.26597736  .00001782  00000-0  12998-3 0  9991,2 52840  53.2161 283.2562 0001452 102.4413 257.6742 15.08847808 76346,6917.857,95.437,540.726,538.717,0.0
52840.0,STARLINK-4049,PAYLOAD,2023-11-03 15:55:19,15.08841585,0.0001578,53.2166,281.4718,86.4151,273.7022,4.5462e-05,4.36e-06,0.0,0 STARLINK-4049,1 52840U 22062L   23307.66342107  .00000436  00000-0  45462-4 0  9993,2 52840  53.2166 281.4718 0001578  86.4151 273.7022 15.08841585 76406,6917.876,95.437,540.832,538.649,0.0
52840.0,STARLINK-4049,PAYLOAD,2023-11-04 04:38:24,15.08847679,0.000157,53.2164,279.09,116.3356,243.7798,0.00019502,2.818e-05,0.0,0 STARLINK-4049,1 52840U 22062L   23308.19333664  .00002818  00000-0  19502-3 0  9991,2 52840  53.2164 279.0900 0001570 116.3356 243.7798 15.08847679 76487,6917.857,95.437,540.808,538.636,0.0
